[
  {
    "COMMENT": "GENERATED VIA SPACETRACK.ORG API",
    "ORIGINATOR": "18 SPCS",
    "NORAD_CAT_ID": "46469",
    "OBJECT_NAME": "HAIYANG 2C",
    "OBJECT_TYPE": "PAYLOAD",
    "CLASSIFICATION_TYPE": "U",
    "INTLDES": "20066A",
    "EPOCH": "2023-06-25 10:02:53",
    "EPOCH_MICROSECONDS": "307456",
    "MEAN_MOTION": "13.83372759",
    "ECCENTRICITY": "0.0009968",
    "INCLINATION": "65.9973",
    "RA_OF_ASC_NODE": "43.5885",
    "ARG_OF_PERICENTER": "299.6683",
    "MEAN_ANOMALY": "60.3393",
    "EPHEMERIS_TYPE": "0",
    "ELEMENT_SET_NO": "999",
    "REV_AT_EPOCH": "13932",
    "BSTAR": "0.000062418",
    "MEAN_MOTION_DOT": "-0.00000013",
    "MEAN_MOTION_DDOT": "0",
    "FILE": "3942353",
    "TLE_LINE0": "0 HAIYANG 2C",
    "TLE_LINE1": "1 46469U 20066A   23176.41867254 -.00000013  00000-0  62418-4 0  9999",
    "TLE_LINE2": "2 46469  65.9973  43.5885 0009968 299.6683  60.3393 13.83372759139328",
    "OBJECT_ID": "2020-066A",
    "OBJECT_NUMBER": "46469",
    "SEMIMAJOR_AXIS": "7330.085",
    "PERIOD": "104.093",
    "APOGEE": "959.257",
    "PERIGEE": "944.644",
    "DECAYED": "0"
  },
  {
    "COMMENT": "GENERATED VIA SPACETRACK.ORG API",
    "ORIGINATOR": "18 SPCS",
    "NORAD_CAT_ID": "46469",
    "OBJECT_NAME": "HAIYANG 2C",
    "OBJECT_TYPE": "PAYLOAD",
    "CLASSIFICATION_TYPE": "U",
    "INTLDES": "20066A",
    "EPOCH": "2023-06-25 16:59:18",
    "EPOCH_MICROSECONDS": "392928",
    "MEAN_MOTION": "13.83372834",
    "ECCENTRICITY": "0.0009979",
    "INCLINATION": "65.9973",
    "RA_OF_ASC_NODE": "42.8685",
    "ARG_OF_PERICENTER": "299.6318",
    "MEAN_ANOMALY": "60.3756",
    "EPHEMERIS_TYPE": "0",
    "ELEMENT_SET_NO": "999",
    "REV_AT_EPOCH": "13936",
    "BSTAR": "0.000066157",
    "MEAN_MOTION_DOT": "-0.00000008",
    "MEAN_MOTION_DDOT": "0",
    "FILE": "3942621",
    "TLE_LINE0": "0 HAIYANG 2C",
    "TLE_LINE1": "1 46469U 20066A   23176.70785177 -.00000008  00000-0  66157-4 0  9992",
    "TLE_LINE2": "2 46469  65.9973  42.8685 0009979 299.6318  60.3756 13.83372834139366",
    "OBJECT_ID": "2020-066A",
    "OBJECT_NUMBER": "46469",
    "SEMIMAJOR_AXIS": "7330.085",
    "PERIOD": "104.093",
    "APOGEE": "959.265",
    "PERIGEE": "944.635",
    "DECAYED": "0"
  },
  {
    "COMMENT": "GENERATED VIA SPACETRACK.ORG API",
    "ORIGINATOR": "18 SPCS",
    "NORAD_CAT_ID": "46469",
    "OBJECT_NAME": "HAIYANG 2C",
    "OBJECT_TYPE": "PAYLOAD",
    "CLASSIFICATION_TYPE": "U",
    "INTLDES": "20066A",
    "EPOCH": "2023-06-26 01:39:49",
    "EPOCH_MICROSECONDS": "751712",
    "MEAN_MOTION": "13.83372939",
    "ECCENTRICITY": "0.0009995",
    "INCLINATION": "65.9972",
    "RA_OF_ASC_NODE": "41.9685",
    "ARG_OF_PERICENTER": "299.6063",
    "MEAN_ANOMALY": "60.4009",
    "EPHEMERIS_TYPE": "0",
    "ELEMENT_SET_NO": "999",
    "REV_AT_EPOCH": "13941",
    "BSTAR": "0.00007934",
    "MEAN_MOTION_DOT": "0.00000006",
    "MEAN_MOTION_DDOT": "0",
    "FILE": "3942931",
    "TLE_LINE0": "0 HAIYANG 2C",
    "TLE_LINE1": "1 46469U 20066A   23177.06932583  .00000006  00000-0  79340-4 0  9992",
    "TLE_LINE2": "2 46469  65.9972  41.9685 0009995 299.6063  60.4009 13.83372939139414",
    "OBJECT_ID": "2020-066A",
    "OBJECT_NUMBER": "46469",
    "SEMIMAJOR_AXIS": "7330.085",
    "PERIOD": "104.093",
    "APOGEE": "959.276",
    "PERIGEE": "944.623",
    "DECAYED": "0"
  },
  {
    "COMMENT": "GENERATED VIA SPACETRACK.ORG API",
    "ORIGINATOR": "18 SPCS",
    "NORAD_CAT_ID": "46469",
    "OBJECT_NAME": "HAIYANG 2C",
    "OBJECT_TYPE": "PAYLOAD",
    "CLASSIFICATION_TYPE": "U",
    "INTLDES": "20066A",
    "EPOCH": "2023-06-26 08:36:14",
    "EPOCH_MICROSECONDS": "838048",
    "MEAN_MOTION": "13.83372989",
    "ECCENTRICITY": "0.0010003",
    "INCLINATION": "65.9972",
    "RA_OF_ASC_NODE": "41.2485",
    "ARG_OF_PERICENTER": "299.566",
    "MEAN_ANOMALY": "60.441",
    "EPHEMERIS_TYPE": "0",
    "ELEMENT_SET_NO": "999",
    "REV_AT_EPOCH": "13945",
    "BSTAR": "0.00007627",
    "MEAN_MOTION_DOT": "0.00000003",
    "MEAN_MOTION_DDOT": "0",
    "FILE": "3943207",
    "TLE_LINE0": "0 HAIYANG 2C",
    "TLE_LINE1": "1 46469U 20066A   23177.35850507  .00000003  00000-0  76270-4 0  9995",
    "TLE_LINE2": "2 46469  65.9972  41.2485 0010003 299.5660  60.4410 13.83372989139454",
    "OBJECT_ID": "2020-066A",
    "OBJECT_NUMBER": "46469",
    "SEMIMAJOR_AXIS": "7330.084",
    "PERIOD": "104.093",
    "APOGEE": "959.282",
    "PERIGEE": "944.617",
    "DECAYED": "0"
  },
  {
    "COMMENT": "GENERATED VIA SPACETRACK.ORG API",
    "ORIGINATOR": "18 SPCS",
    "NORAD_CAT_ID": "46469",
    "OBJECT_NAME": "HAIYANG 2C",
    "OBJECT_TYPE": "PAYLOAD",
    "CLASSIFICATION_TYPE": "U",
    "INTLDES": "20066A",
    "EPOCH": "2023-06-26 15:32:39",
    "EPOCH_MICROSECONDS": "926112",
    "MEAN_MOTION": "13.83372983",
    "ECCENTRICITY": "0.0010008",
    "INCLINATION": "65.9972",
    "RA_OF_ASC_NODE": "40.5285",
    "ARG_OF_PERICENTER": "299.509",
    "MEAN_ANOMALY": "60.498",
    "EPHEMERIS_TYPE": "0",
    "ELEMENT_SET_NO": "999",
    "REV_AT_EPOCH": "13949",
    "BSTAR": "0.000063929",
    "MEAN_MOTION_DOT": "-0.00000011",
    "MEAN_MOTION_DDOT": "0",
    "FILE": "3943516",
    "TLE_LINE0": "0 HAIYANG 2C",
    "TLE_LINE1": "1 46469U 20066A   23177.64768433 -.00000011  00000-0  63929-4 0  9990",
    "TLE_LINE2": "2 46469  65.9972  40.5285 0010008 299.5090  60.4980 13.83372983139496",
    "OBJECT_ID": "2020-066A",
    "OBJECT_NUMBER": "46469",
    "SEMIMAJOR_AXIS": "7330.085",
    "PERIOD": "104.093",
    "APOGEE": "959.285",
    "PERIGEE": "944.614",
    "DECAYED": "0"
  },
  {
    "COMMENT": "GENERATED VIA SPACETRACK.ORG API",
    "ORIGINATOR": "18 SPCS",
    "NORAD_CAT_ID": "46469",
    "OBJECT_NAME": "HAIYANG 2C",
    "OBJECT_TYPE": "PAYLOAD",
    "CLASSIFICATION_TYPE": "U",
    "INTLDES": "20066A",
    "EPOCH": "2023-06-27 01:57:17",
    "EPOCH_MICROSECONDS": "559936",
    "MEAN_MOTION": "13.83372986",
    "ECCENTRICITY": "0.0010034",
    "INCLINATION": "65.9972",
    "RA_OF_ASC_NODE": "39.4485",
    "ARG_OF_PERICENTER": "299.4888",
    "MEAN_ANOMALY": "60.5178",
    "EPHEMERIS_TYPE": "0",
    "ELEMENT_SET_NO": "999",
    "REV_AT_EPOCH": "13955",
    "BSTAR": "0.000057564",
    "MEAN_MOTION_DOT": "-0.00000018",
    "MEAN_MOTION_DDOT": "0",
    "FILE": "3943793",
    "TLE_LINE0": "0 HAIYANG 2C",
    "TLE_LINE1": "1 46469U 20066A   23178.08145324 -.00000018  00000-0  57564-4 0  9992",
    "TLE_LINE2": "2 46469  65.9972  39.4485 0010034 299.4888  60.5178 13.83372986139558",
    "OBJECT_ID": "2020-066A",
    "OBJECT_NUMBER": "46469",
    "SEMIMAJOR_AXIS": "7330.084",
    "PERIOD": "104.093",
    "APOGEE": "959.305",
    "PERIGEE": "944.594",
    "DECAYED": "0"
  },
  {
    "COMMENT": "GENERATED VIA SPACETRACK.ORG API",
    "ORIGINATOR": "18 SPCS",
    "NORAD_CAT_ID": "46469",
    "OBJECT_NAME": "HAIYANG 2C",
    "OBJECT_TYPE": "PAYLOAD",
    "CLASSIFICATION_TYPE": "U",
    "INTLDES": "20066A",
    "EPOCH": "2023-06-27 08:53:42",
    "EPOCH_MICROSECONDS": "645408",
    "MEAN_MOTION": "13.83373025",
    "ECCENTRICITY": "0.0010046",
    "INCLINATION": "65.9972",
    "RA_OF_ASC_NODE": "38.7285",
    "ARG_OF_PERICENTER": "299.4652",
    "MEAN_ANOMALY": "60.5413",
    "EPHEMERIS_TYPE": "0",
    "ELEMENT_SET_NO": "999",
    "REV_AT_EPOCH": "13959",
    "BSTAR": "0.000058136",
    "MEAN_MOTION_DOT": "-0.00000017",
    "MEAN_MOTION_DDOT": "0",
    "FILE": "3944058",
    "TLE_LINE0": "0 HAIYANG 2C",
    "TLE_LINE1": "1 46469U 20066A   23178.37063247 -.00000017  00000-0  58136-4 0  9992",
    "TLE_LINE2": "2 46469  65.9972  38.7285 0010046 299.4652  60.5413 13.83373025139591",
    "OBJECT_ID": "2020-066A",
    "OBJECT_NUMBER": "46469",
    "SEMIMAJOR_AXIS": "7330.084",
    "PERIOD": "104.093",
    "APOGEE": "959.313",
    "PERIGEE": "944.586",
    "DECAYED": "0"
  },
  {
    "COMMENT": "GENERATED VIA SPACETRACK.ORG API",
    "ORIGINATOR": "18 SPCS",
    "NORAD_CAT_ID": "46469",
    "OBJECT_NAME": "HAIYANG 2C",
    "OBJECT_TYPE": "PAYLOAD",
    "CLASSIFICATION_TYPE": "U",
    "INTLDES": "20066A",
    "EPOCH": "2023-06-27 19:18:20",
    "EPOCH_MICROSECONDS": "272320",
    "MEAN_MOTION": "13.8337305",
    "ECCENTRICITY": "0.0010059",
    "INCLINATION": "65.9972",
    "RA_OF_ASC_NODE": "37.6485",
    "ARG_OF_PERICENTER": "299.3726",
    "MEAN_ANOMALY": "60.6338",
    "EPHEMERIS_TYPE": "0",
    "ELEMENT_SET_NO": "999",
    "REV_AT_EPOCH": "13965",
    "BSTAR": "0.000050352",
    "MEAN_MOTION_DOT": "-0.00000026",
    "MEAN_MOTION_DDOT": "0",
    "FILE": "3944370",
    "TLE_LINE0": "0 HAIYANG 2C",
    "TLE_LINE1": "1 46469U 20066A   23178.80440130 -.00000026  00000-0  50352-4 0  9992",
    "TLE_LINE2": "2 46469  65.9972  37.6485 0010059 299.3726  60.6338 13.83373050139658",
    "OBJECT_ID": "2020-066A",
    "OBJECT_NUMBER": "46469",
    "SEMIMAJOR_AXIS": "7330.084",
    "PERIOD": "104.093",
    "APOGEE": "959.323",
    "PERIGEE": "944.576",
    "DECAYED": "0"
  }
]